[{"OBJECT_NAME":"STARLINK-1832","OBJECT_ID":"2020-074AT","EPOCH":"2026-03-10T00:00:02.999808","MEAN_MOTION":15.76443226,"ECCENTRICITY":0.00035584,"INCLINATION":53.0416,"RA_OF_ASC_NODE":266.0189,"ARG_OF_PERICENTER":137.8134,"MEAN_ANOMALY":144.3704,"EPHEMERIS_TYPE":0,"CLASSIFICATION_TYPE":"U","NORAD_CAT_ID":46780,"ELEMENT_SET_NO":999,"REV_AT_EPOCH":591,"BSTAR":0.0012171587,"MEAN_MOTION_DOT":0.00200836,"MEAN_MOTION_DDOT":0},{"OBJECT_NAME":"STARLINK-31268","OBJECT_ID":"2024-049Q","EPOCH":"2026-03-09T22:00:01.999584","MEAN_MOTION":15.80181847,"ECCENTRICITY":0.00239404,"INCLINATION":42.9822,"RA_OF_ASC_NODE":121.2463,"ARG_OF_PERICENTER":68.2784,"MEAN_ANOMALY":176.6479,"EPHEMERIS_TYPE":0,"CLASSIFICATION_TYPE":"U","NORAD_CAT_ID":59245,"ELEMENT_SET_NO":999,"REV_AT_EPOCH":593,"BSTAR":0.00074266557,"MEAN_MOTION_DOT":0.00148493,"MEAN_MOTION_DDOT":0}]
